HAWK-11A                
1 62382U 24247F   26068.51231358  .00009457  00000+0  34106-3 0  9991
2 62382  44.9941 114.3328 0005466 327.3713  32.6832 15.28849427 67741
STARLINK-36523          
1 67460U 26008R   26068.39430650  .00025813  00000+0  94342-3 0  9994
2 67460  43.0011 207.1838 0002454 274.7498  85.3073 15.27607881  9526
