[{"OBJECT_NAME":"HAWK-11A","OBJECT_ID":"2024-247F","EPOCH":"2026-03-09T12:17:43.893312","MEAN_MOTION":15.28849427,"ECCENTRICITY":0.00054663,"INCLINATION":44.9941,"RA_OF_ASC_NODE":114.3328,"ARG_OF_PERICENTER":327.3713,"MEAN_ANOMALY":32.6832,"EPHEMERIS_TYPE":0,"CLASSIFICATION_TYPE":"U","NORAD_CAT_ID":62382,"ELEMENT_SET_NO":999,"REV_AT_EPOCH":6774,"BSTAR":0.00034106017,"MEAN_MOTION_DOT":9.457e-5,"MEAN_MOTION_DDOT":0},{"OBJECT_NAME":"STARLINK-36523","OBJECT_ID":"2026-008R","EPOCH":"2026-03-09T09:27:48.081600","MEAN_MOTION":15.27607881,"ECCENTRICITY":0.00024545,"INCLINATION":43.0011,"RA_OF_ASC_NODE":207.1838,"ARG_OF_PERICENTER":274.7498,"MEAN_ANOMALY":85.3073,"EPHEMERIS_TYPE":0,"CLASSIFICATION_TYPE":"U","NORAD_CAT_ID":67460,"ELEMENT_SET_NO":999,"REV_AT_EPOCH":952,"BSTAR":0.00094342193,"MEAN_MOTION_DOT":0.00025813,"MEAN_MOTION_DDOT":0}]
